start=new Date('2022-09-07T00:00:00.000Z').valueOf();
sats=[{"OBJECT_NAME":"STARLINK-2659","MEAN_MOTION":"15.06379012","ECCENTRICITY":"0.00015440","TIME_SYSTEM":"UTC","SEMIMAJOR_AXIS":"6925.413","ELEMENT_SET_NO":"999","NORAD_CAT_ID":"48467","MEAN_ELEMENT_THEORY":"SGP4","INCLINATION":"53.0547","EPOCH":"2022-09-06T19:50:15.755136","LAUNCH_DATE":"2021-05-09","TLE_LINE2":"2 48467  53.0547 177.1551 0001544  75.2487 284.8673 15.06379012 74866","APOAPSIS":"548.347","RA_OF_ASC_NODE":"177.1551","REV_AT_EPOCH":"7486","ARG_OF_PERICENTER":"75.2487","SITE":"AFETR","CENTER_NAME":"EARTH","PERIOD":"95.593","MEAN_MOTION_DDOT":"0.0000000000000","OBJECT_TYPE":"PAYLOAD","PERIAPSIS":"546.209","TLE_LINE1":"1 48467U 21040AR  22249.82657124 -.00003659  00000-0 -22697-3 0  9994","COUNTRY_CODE":"US","RCS_SIZE":"LARGE","FILE":"3561181","CLASSIFICATION_TYPE":"U","EPHEMERIS_TYPE":"0","GP_ID":"211893670","BSTAR":"-0.00022697000000","MEAN_ANOMALY":"284.8673","REF_FRAME":"TEME","MEAN_MOTION_DOT":"-0.00003659","OBJECT_ID":"2021-040AR","DECAY_DATE":null},{"MEAN_MOTION":"15.06398185","ECCENTRICITY":"0.00017240","OBJECT_NAME":"STARLINK-2685","NORAD_CAT_ID":"48468","MEAN_ELEMENT_THEORY":"SGP4","INCLINATION":"53.0541","TIME_SYSTEM":"UTC","ELEMENT_SET_NO":"999","SEMIMAJOR_AXIS":"6925.354","APOAPSIS":"548.413","LAUNCH_DATE":"2021-05-09","EPOCH":"2022-09-06T05:03:50.628096","TLE_LINE2":"2 48468  53.0541 179.9267 0001724  35.1194 324.9908 15.06398185 73504","REV_AT_EPOCH":"7350","ARG_OF_PERICENTER":"35.1194","PERIOD":"95.592","SITE":"AFETR","CENTER_NAME":"EARTH","MEAN_MOTION_DDOT":"0.0000000000000","RA_OF_ASC_NODE":"179.9267","COUNTRY_CODE":"US","OBJECT_TYPE":"PAYLOAD","PERIAPSIS":"546.025","TLE_LINE1":"1 48468U 21040AS  22249.21100264 -.00001652  00000-0 -92036-4 0  9992","RCS_SIZE":"LARGE","FILE":"3560801","CLASSIFICATION_TYPE":"U","MEAN_ANOMALY":"324.9908","EPHEMERIS_TYPE":"0","GP_ID":"211883212","BSTAR":"-0.00009203600000","MEAN_MOTION_DOT":"-0.00001652","OBJECT_ID":"2021-040AS","DECAY_DATE":null,"REF_FRAME":"TEME"},{"REF_FRAME":"TEME","DECAY_DATE":null,"OBJECT_ID":"2021-040AT","MEAN_MOTION_DOT":"-0.00005262","BSTAR":"-0.00033479000000","GP_ID":"211893177","EPHEMERIS_TYPE":"0","MEAN_ANOMALY":"274.8283","CLASSIFICATION_TYPE":"U","FILE":"3561181","RCS_SIZE":"LARGE","TLE_LINE1":"1 48469U 21040AT  22249.82288087 -.00005262  00000-0 -33479-3 0  9996","PERIAPSIS":"546.318","OBJECT_TYPE":"PAYLOAD","COUNTRY_CODE":"US","RA_OF_ASC_NODE":"177.1604","MEAN_MOTION_DDOT":"0.0000000000000","CENTER_NAME":"EARTH","SITE":"AFETR","PERIOD":"95.593","REV_AT_EPOCH":"7486","ARG_OF_PERICENTER":"85.2864","TLE_LINE2":"2 48469  53.0527 177.1604 0001381  85.2864 274.8283 15.06380028 74869","EPOCH":"2022-09-06T19:44:56.907168","LAUNCH_DATE":"2021-05-09","APOAPSIS":"548.231","ELEMENT_SET_NO":"999","SEMIMAJOR_AXIS":"6925.410","TIME_SYSTEM":"UTC","INCLINATION":"53.0527","MEAN_ELEMENT_THEORY":"SGP4","NORAD_CAT_ID":"48469","OBJECT_NAME":"STARLINK-2661","ECCENTRICITY":"0.00013810","MEAN_MOTION":"15.06380028"},{"TLE_LINE2":"2 48470  53.0541 179.5622 0001946  59.1040 301.0140 15.06380667 73500","LAUNCH_DATE":"2021-05-09","EPOCH":"2022-09-06T06:53:57.413184","APOAPSIS":"548.620","RA_OF_ASC_NODE":"179.5622","MEAN_MOTION_DDOT":"0.0000000000000","SITE":"AFETR","PERIOD":"95.593","CENTER_NAME":"EARTH","REV_AT_EPOCH":"7350","ARG_OF_PERICENTER":"59.1040","OBJECT_NAME":"STARLINK-2675","ECCENTRICITY":"0.00019460","MEAN_MOTION":"15.06380667","SEMIMAJOR_AXIS":"6925.408","ELEMENT_SET_NO":"999","TIME_SYSTEM":"UTC","INCLINATION":"53.0541","NORAD_CAT_ID":"48470","MEAN_ELEMENT_THEORY":"SGP4","BSTAR":"-0.00039882000000","GP_ID":"211884214","EPHEMERIS_TYPE":"0","MEAN_ANOMALY":"301.0140","REF_FRAME":"TEME","DECAY_DATE":null,"OBJECT_ID":"2021-040AU","MEAN_MOTION_DOT":"-0.00006214","TLE_LINE1":"1 48470U 21040AU  22249.28747006 -.00006214  00000-0 -39882-3 0  9991","PERIAPSIS":"545.925","OBJECT_TYPE":"PAYLOAD","COUNTRY_CODE":"US","CLASSIFICATION_TYPE":"U","FILE":"3560801","RCS_SIZE":"LARGE"},{"COUNTRY_CODE":"US","PERIAPSIS":"546.111","TLE_LINE1":"1 48471U 21040AV  22249.21468773 -.00001697  00000-0 -95053-4 0  9999","OBJECT_TYPE":"PAYLOAD","FILE":"3560000","CLASSIFICATION_TYPE":"U","RCS_SIZE":"LARGE","MEAN_ANOMALY":"285.4549","GP_ID":"211843546","BSTAR":"-0.00009505300000","EPHEMERIS_TYPE":"0","DECAY_DATE":null,"MEAN_MOTION_DOT":"-0.00001697","OBJECT_ID":"2021-040AV","REF_FRAME":"TEME","MEAN_MOTION":"15.06401545","ECCENTRICITY":"0.00015850","OBJECT_NAME":"STARLINK-2684","NORAD_CAT_ID":"48471","MEAN_ELEMENT_THEORY":"SGP4","INCLINATION":"53.0556","SEMIMAJOR_AXIS":"6925.344","ELEMENT_SET_NO":"999","TIME_SYSTEM":"UTC","APOAPSIS":"548.306","TLE_LINE2":"2 48471  53.0556 179.8869 0001585  74.6615 285.4549 15.06401545 74779","LAUNCH_DATE":"2021-05-09","EPOCH":"2022-09-06T05:09:09.019872","MEAN_MOTION_DDOT":"0.0000000000000","REV_AT_EPOCH":"7477","ARG_OF_PERICENTER":"74.6615","SITE":"AFETR","CENTER_NAME":"EARTH","PERIOD":"95.592","RA_OF_ASC_NODE":"179.8869"},{"PERIAPSIS":"546.270","TLE_LINE1":"1 48472U 21040AW  22249.26261150 -.00004860  00000-0 -30769-3 0  9992","OBJECT_TYPE":"PAYLOAD","COUNTRY_CODE":"US","FILE":"3560801","CLASSIFICATION_TYPE":"U","RCS_SIZE":"LARGE","GP_ID":"211882713","BSTAR":"-0.00030769000000","EPHEMERIS_TYPE":"0","MEAN_ANOMALY":"292.8998","REF_FRAME":"TEME","DECAY_DATE":null,"MEAN_MOTION_DOT":"-0.00004860","OBJECT_ID":"2021-040AW","OBJECT_NAME":"STARLINK-2722","MEAN_MOTION":"15.06384543","ECCENTRICITY":"0.00014310","SEMIMAJOR_AXIS":"6925.396","ELEMENT_SET_NO":"999","TIME_SYSTEM":"UTC","NORAD_CAT_ID":"48472","MEAN_ELEMENT_THEORY":"SGP4","INCLINATION":"53.0527","TLE_LINE2":"2 48472  53.0527 179.6877 0001431  67.2142 292.8998 15.06384543 73494","EPOCH":"2022-09-06T06:18:09.633600","LAUNCH_DATE":"2021-05-09","APOAPSIS":"548.252","RA_OF_ASC_NODE":"179.6877","MEAN_MOTION_DDOT":"0.0000000000000","REV_AT_EPOCH":"7349","ARG_OF_PERICENTER":"67.2142","SITE":"AFETR","CENTER_NAME":"EARTH","PERIOD":"95.593"},{"DECAY_DATE":null,"MEAN_MOTION_DOT":"-0.00005805","OBJECT_ID":"2021-040AX","REF_FRAME":"TEME","MEAN_ANOMALY":"298.7603","GP_ID":"211897583","BSTAR":"-0.00037136000000","EPHEMERIS_TYPE":"0","FILE":"3561338","CLASSIFICATION_TYPE":"U","RCS_SIZE":"LARGE","COUNTRY_CODE":"US","PERIAPSIS":"546.094","TLE_LINE1":"1 48473U 21040AX  22249.83025267 -.00005805  00000-0 -37136-3 0  9998","OBJECT_TYPE":"PAYLOAD","MEAN_MOTION_DDOT":"0.0000000000000","ARG_OF_PERICENTER":"61.3558","REV_AT_EPOCH":"7486","SITE":"AFETR","PERIOD":"95.593","CENTER_NAME":"EARTH","RA_OF_ASC_NODE":"177.1221","APOAPSIS":"548.462","TLE_LINE2":"2 48473  53.0531 177.1221 0001710  61.3558 298.7603 15.06379010 74865","EPOCH":"2022-09-06T19:55:33.830688","LAUNCH_DATE":"2021-05-09","MEAN_ELEMENT_THEORY":"SGP4","NORAD_CAT_ID":"48473","INCLINATION":"53.0531","ELEMENT_SET_NO":"999","SEMIMAJOR_AXIS":"6925.413","TIME_SYSTEM":"UTC","MEAN_MOTION":"15.06379010","ECCENTRICITY":"0.00017100","OBJECT_NAME":"STARLINK-2658"},{"CLASSIFICATION_TYPE":"U","FILE":"3560045","RCS_SIZE":"LARGE","TLE_LINE1":"1 48474U 21040AY  22249.19995439 -.00001541  00000-0 -84621-4 0  9990","PERIAPSIS":"546.209","OBJECT_TYPE":"PAYLOAD","COUNTRY_CODE":"US","REF_FRAME":"TEME","DECAY_DATE":null,"OBJECT_ID":"2021-040AY","MEAN_MOTION_DOT":"-0.00001541","BSTAR":"-0.00008462100000","GP_ID":"211844725","EPHEMERIS_TYPE":"0","MEAN_ANOMALY":"288.4832","SEMIMAJOR_AXIS":"6925.388","ELEMENT_SET_NO":"999","TIME_SYSTEM":"UTC","INCLINATION":"53.0547","NORAD_CAT_ID":"48474","MEAN_ELEMENT_THEORY":"SGP4","OBJECT_NAME":"STARLINK-2697","ECCENTRICITY":"0.00015070","MEAN_MOTION":"15.06387247","RA_OF_ASC_NODE":"179.9697","MEAN_MOTION_DDOT":"0.0000000000000","SITE":"AFETR","PERIOD":"95.593","CENTER_NAME":"EARTH","REV_AT_EPOCH":"7476","ARG_OF_PERICENTER":"71.6320","TLE_LINE2":"2 48474  53.0547 179.9697 0001507  71.6320 288.4832 15.06387247 74765","LAUNCH_DATE":"2021-05-09","EPOCH":"2022-09-06T04:47:56.059296","APOAPSIS":"548.296"},{"OBJECT_NAME":"STARLINK-2619","MEAN_MOTION":"15.06384784","ECCENTRICITY":"0.00019280","ELEMENT_SET_NO":"999","SEMIMAJOR_AXIS":"6925.395","TIME_SYSTEM":"UTC","MEAN_ELEMENT_THEORY":"SGP4","NORAD_CAT_ID":"48475","INCLINATION":"53.0546","TLE_LINE2":"2 48475  53.0546 179.8095 0001928  63.0817 297.0369 15.06384784 73492","LAUNCH_DATE":"2021-05-09","EPOCH":"2022-09-06T05:41:00.411648","APOAPSIS":"548.595","RA_OF_ASC_NODE":"179.8095","MEAN_MOTION_DDOT":"0.0000000000000","REV_AT_EPOCH":"7349","ARG_OF_PERICENTER":"63.0817","PERIOD":"95.593","SITE":"AFETR","CENTER_NAME":"EARTH","PERIAPSIS":"545.925","TLE_LINE1":"1 48475U 21040AZ  22249.23681032 -.00005204  00000-0 -33084-3 0  9993","OBJECT_TYPE":"PAYLOAD","COUNTRY_CODE":"US","FILE":"3560801","CLASSIFICATION_TYPE":"U","RCS_SIZE":"LARGE","GP_ID":"211883953","BSTAR":"-0.00033084000000","EPHEMERIS_TYPE":"0","MEAN_ANOMALY":"297.0369","REF_FRAME":"TEME","DECAY_DATE":null,"MEAN_MOTION_DOT":"-0.00005204","OBJECT_ID":"2021-040AZ"},{"ECCENTRICITY":"0.00018190","MEAN_MOTION":"15.06377687","OBJECT_NAME":"STARLINK-2723","INCLINATION":"53.0543","MEAN_ELEMENT_THEORY":"SGP4","NORAD_CAT_ID":"48476","TIME_SYSTEM":"UTC","ELEMENT_SET_NO":"999","SEMIMAJOR_AXIS":"6925.417","APOAPSIS":"548.542","LAUNCH_DATE":"2021-05-09","EPOCH":"2022-09-06T18:57:10.499904","TLE_LINE2":"2 48476  53.0543 177.3120 0001819  68.1406 291.9776 15.06377687 74851","CENTER_NAME":"EARTH","SITE":"AFETR","PERIOD":"95.594","REV_AT_EPOCH":"7485","ARG_OF_PERICENTER":"68.1406","MEAN_MOTION_DDOT":"0.0000000000000","RA_OF_ASC_NODE":"177.3120","COUNTRY_CODE":"US","OBJECT_TYPE":"PAYLOAD","TLE_LINE1":"1 48476U 21040BA  22249.78970486 -.00006354  00000-0 -40830-3 0  9992","PERIAPSIS":"546.022","RCS_SIZE":"LARGE","CLASSIFICATION_TYPE":"U","FILE":"3561338","MEAN_ANOMALY":"291.9776","EPHEMERIS_TYPE":"0","BSTAR":"-0.00040830000000","GP_ID":"211897096","OBJECT_ID":"2021-040BA","MEAN_MOTION_DOT":"-0.00006354","DECAY_DATE":null,"REF_FRAME":"TEME"}];
